IRIDIUM 33 DEB          
1 35749U 97051SC  22029.06165392  .00002339  00000+0  51299-3 0  9992
2 35749  86.3760 256.8607 0017376 129.4365 230.8385 14.57151490652524
IRIDIUM 33 DEB          
1 35797U 97051SF  22029.29948986  .00001408  00000+0  34334-3 0  9995
2 35797  86.3461 237.6365 0022968 318.0215  41.9229 14.51892623666781
IRIDIUM 33 DEB          
1 35799U 97051SH  22028.71385133  .00006170  00000+0  13253-2 0  9999
2 35799  85.9370  26.2761 0054803 311.7296  47.9231 14.57511735541397
IRIDIUM 33 DEB          
1 35800U 97051SJ  22026.45346978  .00047625  00000+0  23387-2 0  9994
2 35800  86.2410  98.6061 0013033 298.3384  61.6543 15.17797773684755
IRIDIUM 33 DEB          
1 35802U 97051SL  22029.33122185  .00003283  00000+0  83468-3 0  9997
2 35802  86.4566 349.9505 0078310 184.8768 175.1683 14.48601484667326
IRIDIUM 33 DEB          
1 35805U 97051SP  22029.48850633  .00002901  00000+0  99081-3 0  9996
2 35805  86.3225 313.3151 0124976 123.4806 237.8408 14.31716456650864
IRIDIUM 33 DEB          
1 35806U 97051SQ  22023.44350469  .00001075  00000+0  33210-3 0  9992
2 35806  86.3486 274.3807 0018418 104.8397 255.4844 14.40365948658010
IRIDIUM 33 DEB          
1 35809U 97051ST  22029.36402778  .00001299  00000+0  33620-3 0  9996
2 35809  86.3359 240.5146 0023334   2.9638 173.4391 14.48993341662037
IRIDIUM 33 DEB          
1 35846U 97051SW  22029.49262951  .00000617  00000+0  20732-3 0  9991
2 35846  86.3785 296.8712 0019557 132.1010 228.1853 14.35528613510109
IRIDIUM 33 DEB          
1 35848U 97051SY  22029.39408278  .00001364  00000+0  34519-3 0  9994
2 35848  86.3982 272.3266 0016150 353.5525   6.5470 14.50207653460639
IRIDIUM 33 DEB          
1 35850U 97051TA  22027.87147571  .00001268  00000+0  31626-3 0  9993
2 35850  86.3580 248.4629 0019011 347.3168  12.7556 14.50787370507013
IRIDIUM 33 DEB          
1 35851U 97051TB  22029.70143934  .00023808  00000+0  37858-2 0  9993
2 35851  86.4063 290.3005 0066236 278.5228  80.8486 14.70466072675444
IRIDIUM 33 DEB          
1 35853U 97051TD  22026.34203457  .00007971  00000+0  15688-2 0  9999
2 35853  86.3081 245.1984 0067086  15.0372 345.2812 14.61025219654247
IRIDIUM 33 DEB          
1 35856U 97051TG  22029.31111289  .00006848  00000+0  88360-3 0  9993
2 35856  86.3676 226.7739 0075645 355.5109 126.5170 14.78832836497266
IRIDIUM 33 DEB          
1 35857U 97051TH  22029.07093785  .00002596  00000+0  43778-3 0  9997
2 35857  86.4290 259.3156 0060842 127.8934 232.7805 14.67852584502378
IRIDIUM 33 DEB          
1 35858U 97051TJ  22029.33425638  .00008779  00000+0  15520-2 0  9995
2 35858  86.3558 257.7737 0031036  95.0402 265.4356 14.66979861480018
IRIDIUM 33 DEB          
1 35862U 97051TN  22029.46700760  .00020546  00000+0  23383-2 0  9998
2 35862  86.3755 215.8515 0020760 323.1503  67.1532 14.85952417521681
IRIDIUM 33 DEB          
1 35863U 97051TP  22029.11198140  .00006261  00000+0  14395-2 0  9995
2 35863  86.3407 277.3649 0090689 125.2946 235.6785 14.52766679657630
IRIDIUM 33 DEB          
1 35911U 97051TU  22029.33620933  .00002073  00000+0  74165-3 0  9992
2 35911  86.2341 256.9431 0091110  86.8909 274.2705 14.31304711665321
IRIDIUM 33 DEB          
1 35915U 97051TY  22029.32139143  .00001403  00000+0  35382-3 0  9997
2 35915  86.3537 247.5433 0023012 341.1104  18.9244 14.50290433437527
IRIDIUM 33 DEB          
1 35917U 97051UA  22028.86273659  .00004260  00000+0  72569-3 0  9990
2 35917  86.3922 242.1186 0017945 107.1753 253.1429 14.68736055660790
IRIDIUM 33 DEB          
1 35918U 97051UB  22029.54291758  .00001008  00000+0  33166-3 0  9994
2 35918  86.4083 313.2095 0030500 161.3715 323.1492 14.37046759650878
IRIDIUM 33 DEB          
1 35921U 97051UE  22028.95901299  .00003357  00000+0  12184-2 0  9995
2 35921  86.4264  23.7043 0146058 275.5052  82.9495 14.27326803449281
IRIDIUM 33 DEB          
1 35922U 97051UF  22028.93685857  .00002318  00000+0  51095-3 0  9994
2 35922  86.3885 261.4238 0027993 252.4165 107.3985 14.56784366445862
IRIDIUM 33 DEB          
1 35925U 97051UJ  22029.67348606  .00032678  00000+0  32814-2 0  9996
2 35925  86.3113 183.1413 0010211 195.2653 164.8267 14.91097868677877
IRIDIUM 33 DEB          
1 35926U 97051UK  22029.47716322  .00005049  00000+0  95677-3 0  9998
2 35926  86.3467 222.4959 0006214 191.7707 168.3361 14.64124113665898
IRIDIUM 33 DEB          
1 35929U 97051UN  22028.28731747  .00001684  00000+0  37323-3 0  9992
2 35929  86.3502 228.4943 0028536 238.4671 121.3750 14.56348294669883
IRIDIUM 33 DEB          
1 36011U 97051US  22028.44356803  .00000437  00000+0  14649-3 0  9990
2 36011  86.3427 278.6457 0020059 174.0430 310.8298 14.34973376442218
IRIDIUM 33 DEB          
1 36012U 97051UT  22029.25343338  .00002525  00000+0  14185-2 0  9994
2 36012  86.4549 139.6859 0312971 311.5097  45.9596 13.88368203456982
IRIDIUM 33 DEB          
1 36017U 97051UY  22029.43459150  .00035126  00000+0  30952-2 0  9992
2 36017  86.3597 200.1862 0010276 145.7250 244.2381 14.96257712459484
IRIDIUM 33 DEB          
1 36019U 97051VA  22029.60618775  .00002817  00000+0  61303-3 0  9999
2 36019  86.3919 258.8261 0007266 332.9637  56.7897 14.57672994657502
IRIDIUM 33 DEB          
1 36021U 97051VC  22029.15815439  .00005613  00000+0  16885-2 0  9999
2 36021  86.4197 357.7383 0129103  81.5477 280.0330 14.37718416380811
IRIDIUM 33 DEB          
1 36023U 97051VE  22029.03473484  .00004204  00000+0  91031-3 0  9990
2 36023  86.3379 245.5521 0023501 267.0191  92.8329 14.57853649656982
IRIDIUM 33 DEB          
1 36025U 97051VG  22029.27388221  .00012049  00000+0  23043-2 0  9995
2 36025  86.5529  23.2606 0037948 310.5035  49.2873 14.63327634541800
IRIDIUM 33 DEB          
1 36028U 97051VK  22029.29246208  .00001774  00000+0  40044-3 0  9992
2 36028  86.3376 222.1494 0031625 242.6812 117.1175 14.55474955663793
IRIDIUM 33 DEB          
1 36080U 97051VM  22029.36836971  .00000595  00000+0  18948-3 0  9998
2 36080  86.3197 258.1268 0020566 140.5008 219.7694 14.38074057270536
IRIDIUM 33 DEB          
1 36081U 97051VN  22028.26192558  .00004187  00000+0  11157-2 0  9998
2 36081  86.2361 221.6936 0056155 175.4467 184.7259 14.47335770418595
IRIDIUM 33 DEB          
1 36083U 97051VQ  22023.99615682  .00000414  00000+0  13567-3 0  9990
2 36083  86.3457 280.0623 0028206 204.0103 155.9780 14.35794804650498
IRIDIUM 33 DEB          
1 36390U 97051VU  22026.25936722  .00001015  00000+0  24697-3 0  9998
2 36390  86.3038 212.9358 0045198 301.8648  57.8162 14.51238547455999
IRIDIUM 33 DEB          
1 36482U 97051VY  22028.28732207  .00001642  00000+0  37768-3 0  9996
2 36482  86.3425 231.8765 0018101 309.4945  50.4661 14.54772009474466
IRIDIUM 33 DEB          
1 36483U 97051VZ  22029.02298626  .00000469  00000+0  14971-3 0  9999
2 36483  86.3826 292.3440 0011382 101.5280 258.7196 14.37636450447872
IRIDIUM 33 DEB          
1 36485U 97051WB  22029.69830734  .00002515  00000+0  85467-3 0  9998
2 36485  86.4486  19.8030 0113401 159.6670 200.9097 14.32663336633151
IRIDIUM 33 DEB          
1 36486U 97051WC  22029.26472899  .00005636  00000+0  10068-2 0  9997
2 36486  86.3525 222.5585 0018550 149.1138 211.1171 14.66676895456156
IRIDIUM 33 DEB          
1 36487U 97051WD  22026.73617722  .00002755  00000+0  12135-2 0  9999
2 36487  86.3699  30.9087 0171273 166.3115 194.2804 14.15575140492929
IRIDIUM 33 DEB          
1 36490U 97051WG  22029.41624709  .00001337  00000+0  35762-3 0  9991
2 36490  86.3756 268.1448 0002491  93.8038 266.3450 14.47647393658934
IRIDIUM 33 DEB          
1 36492U 97051WJ  22028.95762921  .00003624  00000+0  73530-3 0  9996
2 36492  86.4222 279.8911 0011711  98.1161 262.1378 14.60922377666383
IRIDIUM 33 DEB          
1 36493U 97051WK  22029.37990782  .00001211  00000+0  34038-3 0  9992
2 36493  86.3623 266.2217 0017546  52.3895 307.8896 14.45082942539991
IRIDIUM 33 DEB          
1 36497U 97051WP  22024.17919361  .00001600  00000+0  50545-3 0  9996
2 36497  86.1668 179.3499 0072173 153.9351 331.1527 14.38141799656135
IRIDIUM 33 DEB          
1 36563U 97051WS  22029.22830513  .00028358  00000+0  31532-2 0  9995
2 36563  86.3535 212.6769 0035861  53.0781 307.3720 14.86556107663094
IRIDIUM 33 DEB          
1 36566U 97051WV  22027.51319126  .00003375  00000+0  13594-2 0  9990
2 36566  86.4287  53.6234 0170767 115.1413 246.7599 14.20125929642885
IRIDIUM 33 DEB          
1 36642U 97051XC  22028.33155588  .00006946  00000+0  11078-2 0  9998
2 36642  86.3697 239.6913 0020359  24.7979 335.4211 14.71673729520476
IRIDIUM 33 DEB          
1 37136U 97051XG  22029.28626018  .00000569  00000+0  24531-3 0  9997
2 37136  86.1735 234.0511 0084884 188.5885 171.3856 14.20905579443872
IRIDIUM 33 DEB          
1 37548U 97051XH  22029.43424771  .00000789  00000+0  26220-3 0  9994
2 37548  86.3566 288.6365 0029647 177.4369 182.6986 14.36263876451620
IRIDIUM 33 DEB          
1 37549U 97051XJ  22029.39602162  .00010041  00000+0  18608-2 0  9994
2 37549  86.3788 275.4766 0038470 268.4419  91.2387 14.64722542659448
IRIDIUM 33 DEB          
1 37550U 97051XK  22029.38867616  .00001190  00000+0  33002-3 0  9993
2 37550  86.3832 276.0559 0001206 151.2729 208.8540 14.45798853657988
IRIDIUM 33 DEB          
1 37555U 97051XQ  22029.73258225  .00016639  00000+0  28541-2 0  9992
2 37555  86.4564 311.0008 0057148 343.7059  16.2316 14.67560067647287
IRIDIUM 33 DEB          
1 37557U 97051XS  22029.65704968  .00003948  00000+0  12700-2 0  9994
2 37557  86.3739 350.5758 0112866 181.5790 178.5068 14.35522593647655
IRIDIUM 33 DEB          
1 37558U 97051XT  22029.43691888  .00004158  00000+0  98507-3 0  9991
2 37558  86.4070 291.9928 0084726  49.6207 311.2354 14.51626232409611
IRIDIUM 33 DEB          
1 37560U 97051XV  22029.12516296  .00006843  00000+0  18346-2 0  9994
2 37560  86.3807 328.4308 0089602 335.1148  86.6877 14.45688139431439
IRIDIUM 33 DEB          
1 37562U 97051XX  22029.48973264  .00001072  00000+0  33052-3 0  9998
2 37562  86.3795 289.2985 0031172 123.6065  49.8225 14.40262890658974
